start=new Date('2022-10-01T00:00:00.000Z').valueOf();
sats=[{"APOAPSIS":"548.267","INCLINATION":"53.0563","SEMIMAJOR_AXIS":"6925.325","NORAD_CAT_ID":"45678","CLASSIFICATION_TYPE":"U","MEAN_ELEMENT_THEORY":"SGP4","LAUNCH_DATE":"2020-06-04","MEAN_ANOMALY":"300.9536","PERIAPSIS":"546.113","MEAN_MOTION":"15.06407699","DECAY_DATE":null,"GP_ID":"213903890","RCS_SIZE":"LARGE","RA_OF_ASC_NODE":"294.7185","COUNTRY_CODE":"US","TLE_LINE1":"1 45678U 20035X   22273.75891540  .00000475  00000-0  50761-4 0  9994","OBJECT_NAME":"STARLINK-1393","TLE_LINE2":"2 45678  53.0563 294.7185 0001555  59.1605 300.9536 15.06407699129557","ELEMENT_SET_NO":"999","EPOCH":"2022-09-30T18:12:50.290560","ECCENTRICITY":"0.00015550","MEAN_MOTION_DDOT":"0.0000000000000","EPHEMERIS_TYPE":"0","PERIOD":"95.592","OBJECT_ID":"2020-035X","OBJECT_TYPE":"PAYLOAD","TIME_SYSTEM":"UTC","MEAN_MOTION_DOT":"0.00000475","FILE":"3587966","SITE":"AFETR","REV_AT_EPOCH":"12955","REF_FRAME":"TEME","ARG_OF_PERICENTER":"59.1605","BSTAR":"0.00005076100000","CENTER_NAME":"EARTH"},{"BSTAR":"0.00013269000000","CENTER_NAME":"EARTH","TIME_SYSTEM":"UTC","MEAN_MOTION_DOT":"0.00001696","SITE":"AFETR","FILE":"3587966","REV_AT_EPOCH":"12957","REF_FRAME":"TEME","ARG_OF_PERICENTER":"62.7175","MEAN_MOTION_DDOT":"0.0000000000000","ECCENTRICITY":"0.00014270","EPHEMERIS_TYPE":"0","OBJECT_TYPE":"PAYLOAD","PERIOD":"95.592","OBJECT_ID":"2020-035Y","OBJECT_NAME":"STARLINK-1394","TLE_LINE1":"1 45679U 20035Y   22273.76260012  .00001696  00000-0  13269-3 0  9997","TLE_LINE2":"2 45679  53.0538 294.6988 0001427  62.7175 297.3959 15.06402225129570","ELEMENT_SET_NO":"999","EPOCH":"2022-09-30T18:18:08.650368","RA_OF_ASC_NODE":"294.6988","COUNTRY_CODE":"US","PERIAPSIS":"546.218","MEAN_MOTION":"15.06402225","GP_ID":"213902663","DECAY_DATE":null,"RCS_SIZE":"LARGE","NORAD_CAT_ID":"45679","MEAN_ELEMENT_THEORY":"SGP4","LAUNCH_DATE":"2020-06-04","CLASSIFICATION_TYPE":"U","MEAN_ANOMALY":"297.3959","INCLINATION":"53.0538","APOAPSIS":"548.195","SEMIMAJOR_AXIS":"6925.342"},{"PERIAPSIS":"546.234","MEAN_MOTION":"15.06392831","GP_ID":"213902912","DECAY_DATE":null,"RCS_SIZE":"LARGE","RA_OF_ASC_NODE":"294.6763","COUNTRY_CODE":"US","INCLINATION":"53.0533","APOAPSIS":"548.237","SEMIMAJOR_AXIS":"6925.371","NORAD_CAT_ID":"45680","MEAN_ELEMENT_THEORY":"SGP4","LAUNCH_DATE":"2020-06-04","CLASSIFICATION_TYPE":"U","MEAN_ANOMALY":"296.5941","TIME_SYSTEM":"UTC","MEAN_MOTION_DOT":"-0.00000036","SITE":"AFETR","FILE":"3587966","REV_AT_EPOCH":"12956","REF_FRAME":"TEME","ARG_OF_PERICENTER":"63.5196","BSTAR":"0.00001646500000","CENTER_NAME":"EARTH","TLE_LINE1":"1 45680U 20035Z   22273.76998046 -.00000036  00000-0  16465-4 0  9994","OBJECT_NAME":"STARLINK-1395","TLE_LINE2":"2 45680  53.0533 294.6763 0001446  63.5196 296.5941 15.06392831129563","ELEMENT_SET_NO":"999","EPOCH":"2022-09-30T18:28:46.311744","MEAN_MOTION_DDOT":"0.0000000000000","ECCENTRICITY":"0.00014460","EPHEMERIS_TYPE":"0","OBJECT_TYPE":"PAYLOAD","PERIOD":"95.593","OBJECT_ID":"2020-035Z"},{"RA_OF_ASC_NODE":"294.6852","COUNTRY_CODE":"US","MEAN_MOTION":"15.06399048","PERIAPSIS":"546.250","RCS_SIZE":"LARGE","GP_ID":"213903164","DECAY_DATE":null,"NORAD_CAT_ID":"45681","MEAN_ANOMALY":"275.3539","MEAN_ELEMENT_THEORY":"SGP4","LAUNCH_DATE":"2020-06-04","CLASSIFICATION_TYPE":"U","SEMIMAJOR_AXIS":"6925.351","APOAPSIS":"548.183","INCLINATION":"53.0547","BSTAR":"0.00017177000000","CENTER_NAME":"EARTH","SITE":"AFETR","FILE":"3587966","TIME_SYSTEM":"UTC","MEAN_MOTION_DOT":"0.00002278","REF_FRAME":"TEME","ARG_OF_PERICENTER":"84.7609","REV_AT_EPOCH":"12957","MEAN_MOTION_DDOT":"0.0000000000000","ECCENTRICITY":"0.00013960","OBJECT_TYPE":"PAYLOAD","PERIOD":"95.592","OBJECT_ID":"2020-035AA","EPHEMERIS_TYPE":"0","TLE_LINE1":"1 45681U 20035AA  22273.76628782  .00002278  00000-0  17177-3 0  9991","OBJECT_NAME":"STARLINK-1396","EPOCH":"2022-09-30T18:23:27.267648","TLE_LINE2":"2 45681  53.0547 294.6852 0001396  84.7609 275.3539 15.06399048129572","ELEMENT_SET_NO":"999"},{"PERIAPSIS":"546.333","MEAN_MOTION":"15.06396519","DECAY_DATE":null,"GP_ID":"213903392","RCS_SIZE":"LARGE","RA_OF_ASC_NODE":"294.6454","COUNTRY_CODE":"US","APOAPSIS":"548.116","INCLINATION":"53.0558","SEMIMAJOR_AXIS":"6925.359","NORAD_CAT_ID":"45682","CLASSIFICATION_TYPE":"U","MEAN_ELEMENT_THEORY":"SGP4","LAUNCH_DATE":"2020-06-04","MEAN_ANOMALY":"287.4041","TIME_SYSTEM":"UTC","MEAN_MOTION_DOT":"0.00002688","FILE":"3587966","SITE":"AFETR","REV_AT_EPOCH":"12956","REF_FRAME":"TEME","ARG_OF_PERICENTER":"72.7089","BSTAR":"0.00019930000000","CENTER_NAME":"EARTH","TLE_LINE1":"1 45682U 20035AB  22273.77366070  .00002688  00000-0  19930-3 0  9996","OBJECT_NAME":"STARLINK-1397","ELEMENT_SET_NO":"999","TLE_LINE2":"2 45682  53.0558 294.6454 0001287  72.7089 287.4041 15.06396519129562","EPOCH":"2022-09-30T18:34:04.284480","ECCENTRICITY":"0.00012870","MEAN_MOTION_DDOT":"0.0000000000000","EPHEMERIS_TYPE":"0","PERIOD":"95.592","OBJECT_ID":"2020-035AB","OBJECT_TYPE":"PAYLOAD"},{"EPHEMERIS_TYPE":"0","OBJECT_TYPE":"PAYLOAD","PERIOD":"95.592","OBJECT_ID":"2020-035AC","MEAN_MOTION_DDOT":"0.0000000000000","ECCENTRICITY":"0.00015180","TLE_LINE2":"2 45683  53.0527 294.7173 0001518  63.6058 296.5086 15.06404865129575","ELEMENT_SET_NO":"999","EPOCH":"2022-09-30T18:07:31.593792","TLE_LINE1":"1 45683U 20035AC  22273.75522678  .00002686  00000-0  19913-3 0  9992","OBJECT_NAME":"STARLINK-1399","CENTER_NAME":"EARTH","BSTAR":"0.00019913000000","REV_AT_EPOCH":"12957","REF_FRAME":"TEME","ARG_OF_PERICENTER":"63.6058","MEAN_MOTION_DOT":"0.00002686","TIME_SYSTEM":"UTC","SITE":"AFETR","FILE":"3587966","MEAN_ELEMENT_THEORY":"SGP4","LAUNCH_DATE":"2020-06-04","CLASSIFICATION_TYPE":"U","MEAN_ANOMALY":"296.5086","NORAD_CAT_ID":"45683","INCLINATION":"53.0527","APOAPSIS":"548.250","SEMIMAJOR_AXIS":"6925.334","COUNTRY_CODE":"US","RA_OF_ASC_NODE":"294.7173","GP_ID":"213902164","DECAY_DATE":null,"RCS_SIZE":"LARGE","PERIAPSIS":"546.147","MEAN_MOTION":"15.06404865"},{"EPHEMERIS_TYPE":"0","PERIOD":"95.592","OBJECT_ID":"2020-035AD","OBJECT_TYPE":"PAYLOAD","ECCENTRICITY":"0.00018840","MEAN_MOTION_DDOT":"0.0000000000000","TLE_LINE2":"2 45684  53.0550 294.5315 0001884  53.5700 306.5462 15.06403479129587","ELEMENT_SET_NO":"999","EPOCH":"2022-09-30T19:11:13.363872","OBJECT_NAME":"STARLINK-1401","TLE_LINE1":"1 45684U 20035AD  22273.79946023  .00001335  00000-0  10851-3 0  9993","CENTER_NAME":"EARTH","BSTAR":"0.00010851000000","REV_AT_EPOCH":"12958","ARG_OF_PERICENTER":"53.5700","REF_FRAME":"TEME","TIME_SYSTEM":"UTC","MEAN_MOTION_DOT":"0.00001335","FILE":"3587966","SITE":"AFETR","CLASSIFICATION_TYPE":"U","MEAN_ELEMENT_THEORY":"SGP4","LAUNCH_DATE":"2020-06-04","MEAN_ANOMALY":"306.5462","NORAD_CAT_ID":"45684","APOAPSIS":"548.508","INCLINATION":"53.0550","SEMIMAJOR_AXIS":"6925.338","COUNTRY_CODE":"US","RA_OF_ASC_NODE":"294.5315","DECAY_DATE":null,"GP_ID":"213902414","RCS_SIZE":"LARGE","PERIAPSIS":"545.898","MEAN_MOTION":"15.06403479"},{"MEAN_ANOMALY":"290.5262","MEAN_ELEMENT_THEORY":"SGP4","LAUNCH_DATE":"2020-06-04","CLASSIFICATION_TYPE":"U","NORAD_CAT_ID":"45685","SEMIMAJOR_AXIS":"6925.325","APOAPSIS":"548.226","INCLINATION":"53.0540","COUNTRY_CODE":"US","RA_OF_ASC_NODE":"294.2565","RCS_SIZE":"LARGE","GP_ID":"213903663","DECAY_DATE":null,"MEAN_MOTION":"15.06407729","PERIAPSIS":"546.154","OBJECT_TYPE":"PAYLOAD","PERIOD":"95.592","OBJECT_ID":"2020-035AE","EPHEMERIS_TYPE":"0","MEAN_MOTION_DDOT":"0.0000000000000","ECCENTRICITY":"0.00014960","EPOCH":"2022-09-30T20:41:26.948544","ELEMENT_SET_NO":"999","TLE_LINE2":"2 45685  53.0540 294.2565 0001496  69.5887 290.5262 15.06407729129596","TLE_LINE1":"1 45685U 20035AE  22273.86211746  .00003313  00000-0  24115-3 0  9995","OBJECT_NAME":"STARLINK-1402","CENTER_NAME":"EARTH","BSTAR":"0.00024115000000","ARG_OF_PERICENTER":"69.5887","REF_FRAME":"TEME","REV_AT_EPOCH":"12959","SITE":"AFETR","FILE":"3587966","MEAN_MOTION_DOT":"0.00003313","TIME_SYSTEM":"UTC"},{"LAUNCH_DATE":"2020-06-04","MEAN_ELEMENT_THEORY":"SGP4","CLASSIFICATION_TYPE":"U","MEAN_ANOMALY":"275.2885","NORAD_CAT_ID":"45686","APOAPSIS":"548.198","INCLINATION":"53.0548","SEMIMAJOR_AXIS":"6925.323","COUNTRY_CODE":"US","RA_OF_ASC_NODE":"294.5743","GP_ID":"213903891","DECAY_DATE":null,"RCS_SIZE":"LARGE","PERIAPSIS":"546.177","MEAN_MOTION":"15.06408499","EPHEMERIS_TYPE":"0","OBJECT_TYPE":"PAYLOAD","PERIOD":"95.592","OBJECT_ID":"2020-035AF","MEAN_MOTION_DDOT":"0.0000000000000","ECCENTRICITY":"0.00014590","ELEMENT_SET_NO":"999","TLE_LINE2":"2 45686  53.0548 294.5743 0001459  84.8271 275.2885 15.06408499129587","EPOCH":"2022-09-30T18:55:16.998816","OBJECT_NAME":"STARLINK-1404","TLE_LINE1":"1 45686U 20035AF  22273.78839119  .00003041  00000-0  22289-3 0  9995","CENTER_NAME":"EARTH","BSTAR":"0.00022289000000","REV_AT_EPOCH":"12958","REF_FRAME":"TEME","ARG_OF_PERICENTER":"84.8271","TIME_SYSTEM":"UTC","MEAN_MOTION_DOT":"0.00003041","SITE":"AFETR","FILE":"3587966"},{"TIME_SYSTEM":"UTC","MEAN_MOTION_DOT":"0.00014825","SITE":"AFETR","FILE":"3587966","REV_AT_EPOCH":"12957","ARG_OF_PERICENTER":"40.7979","REF_FRAME":"TEME","BSTAR":"0.00096796000000","CENTER_NAME":"EARTH","TLE_LINE1":"1 45688U 20035AH  22273.75158665  .00014825  00000-0  96796-3 0  9990","OBJECT_NAME":"STARLINK-1408","ELEMENT_SET_NO":"999","TLE_LINE2":"2 45688  53.0555 294.4413 0000995  40.7979 319.3085 15.08051597129576","EPOCH":"2022-09-30T18:02:17.086560","MEAN_MOTION_DDOT":"0.0000000000000","ECCENTRICITY":"0.00009950","EPHEMERIS_TYPE":"0","OBJECT_TYPE":"PAYLOAD","OBJECT_ID":"2020-035AH","PERIOD":"95.487","PERIAPSIS":"541.468","MEAN_MOTION":"15.08051597","GP_ID":"213902664","DECAY_DATE":null,"RCS_SIZE":"LARGE","RA_OF_ASC_NODE":"294.4413","COUNTRY_CODE":"US","APOAPSIS":"542.845","INCLINATION":"53.0555","SEMIMAJOR_AXIS":"6920.291","NORAD_CAT_ID":"45688","LAUNCH_DATE":"2020-06-04","MEAN_ELEMENT_THEORY":"SGP4","CLASSIFICATION_TYPE":"U","MEAN_ANOMALY":"319.3085"}];
